[{
		"name": "Dharwad Mishra Pedha and Food Processing Industry",
		"address1": "G.A. Mishra Farm House, Near Navodaya School",
		"address2": "Kyarakoppa Road",
		"city": "Dharwad",
		"pincode": "580007",
		"gstNo": "29AACFM3766F1Z5"
	},
	{
		"name": "Akib Bepari",
		"address1": "H.No. 1762, Jedgalli",
		"address2": "Shahapur",
		"city": "Belgaum",
		"pincode": "590003",
		"gstNo": ""
	},
	{
		"name": "Shri Renuka Sweet Mart",
		"address1": "Opp Old bus Stand,",
		"address2": "P.B. Road",
		"city": "Hubli",
		"pincode": "5800029",
		"gstNo": "29ABAFS6643J1ZS"
	},
	{
		"name": "Makon Infratech",
		"address1": "No.50, 1st Floor, Laxmi Complex",
		"address2": "Neelgiri Road",
		"city": "Hubli",
		"pincode": "5800029",
		"gstNo": "29AUNPB1893M1ZO"
	},
	{
		"name": "Ideal Food Products",
		"address1": "671, Khanapur Road",
		"address2": "Udyambag",
		"city": "Belgaum",
		"pincode": "590008",
		"gstNo": "29AABFI3360A1ZU"
	},
	{
		"name": "Jeydeep Metal",
		"address1": "Plot No.101, Shop No.4, Patil Complex",
		"address2": "Udyambag",
		"city": "Belgaum",
		"pincode": "590008",
		"gstNo": "29AARPB7325G1ZJ"
	},
	{
		"name": "Rukmini Sales Corporation",
		"address1": "Plot No.182/A/186, Industrial Estate",
		"address2": "Udyambag",
		"city": "Belgaum",
		"pincode": "590008",
		"gstNo": "29AIKPP3486H1ZN"
	},
	{
		"name": "Nandalala Electricals and Allied Products",
		"address1": "M-399- 1st Stage, Industrial Estate",
		"address2": "Peenya",
		"city": "Bangalore",
		"pincode": "560058",
		"gstNo": "29AABFN3642E1ZG"
	},
	{
		"name": "Universal Enterprises",
		"address1": "4/63, H. Siddiah Road",
		"address2": "",
		"city": "Bangalore",
		"pincode": "560002",
		"gstNo": "29ABOPD7404J1ZF"
	},
	{
		"name": "Prakash Industries",
		"address1": "B-225, 4th Cross, 1st Stage",
		"address2": "Peenya Industrial Estate",
		"city": "Bangalore",
		"pincode": "560058",
		"gstNo": "29ABAPP4501C1Z4"
	},
	{
		"name": "S.L Systems",
		"address1": "No.704, K. Padmanabhiah Building,",
		"address2": "Near SRS Water Tank, Peenya",
		"city": "Bangalore",
		"pincode": "560058",
		"gstNo": "29AAOPU1991J1ZS"
	},
	{
		"name": "R.D. Express",
		"address1": "Shop No. U1 and 2, Chalukya Complex, P.B. Road",
		"address2": "Opp Canara Hotel, Hosur",
		"city": "Hubli",
		"pincode": "580021",
		"gstNo": "29DSRPS5956P1Z6"
	}
]